CCSDS_OMM_VERS = 2.0
CREATION_DATE  = 
ORIGINATOR     = 

OBJECT_NAME    = COSMOS 1933
OBJECT_ID      = 1988-020A
CENTER_NAME    = EARTH
REF_FRAME      = TEME
TIME_SYSTEM    = UTC
MEAN_ELEMENT_THEORY = SGP/SGP4

EPOCH          = 2026-02-27T12:09:13.500000
MEAN_MOTION    = 15.17875623
ECCENTRICITY   = .00029772
INCLINATION    = 82.5099
RA_OF_ASC_NODE = 260.9893
ARG_OF_PERICENTER = 220.4705
MEAN_ANOMALY   = 139.6308

EPHEMERIS_TYPE = 0
CLASSIFICATION_TYPE = U
NORAD_CAT_ID   = 18958
ELEMENT_SET_NO = 999
REV_AT_EPOCH   = 4868
BSTAR          = .23109255E-3
MEAN_MOTION_DOT = .471E-4
MEAN_MOTION_DDOT = 0

CCSDS_OMM_VERS = 2.0
CREATION_DATE  = 
ORIGINATOR     = 

OBJECT_NAME    = SL-3 R/B
OBJECT_ID      = 1988-032B
CENTER_NAME    = EARTH
REF_FRAME      = TEME
TIME_SYSTEM    = UTC
MEAN_ELEMENT_THEORY = SGP/SGP4

EPOCH          = 2026-02-27T22:08:35.286432
MEAN_MOTION    = 15.19769559
ECCENTRICITY   = .00240588
INCLINATION    = 97.5171
RA_OF_ASC_NODE = 42.2102
ARG_OF_PERICENTER = 268.3141
MEAN_ANOMALY   = 91.5338

EPHEMERIS_TYPE = 0
CLASSIFICATION_TYPE = U
NORAD_CAT_ID   = 19046
ELEMENT_SET_NO = 999
REV_AT_EPOCH   = 5062
BSTAR          = .26913338E-3
MEAN_MOTION_DOT = .5731E-4
MEAN_MOTION_DDOT = 0

CCSDS_OMM_VERS = 2.0
CREATION_DATE  = 
ORIGINATOR     = 

OBJECT_NAME    = SL-16 R/B
OBJECT_ID      = 1988-039B
CENTER_NAME    = EARTH
REF_FRAME      = TEME
TIME_SYSTEM    = UTC
MEAN_ELEMENT_THEORY = SGP/SGP4

EPOCH          = 2026-02-27T20:00:30.202560
MEAN_MOTION    = 14.19614408
ECCENTRICITY   = .00221786
INCLINATION    = 71.0129
RA_OF_ASC_NODE = 89.3903
ARG_OF_PERICENTER = 348.9895
MEAN_ANOMALY   = 11.0741

EPHEMERIS_TYPE = 0
CLASSIFICATION_TYPE = U
NORAD_CAT_ID   = 19120
ELEMENT_SET_NO = 999
REV_AT_EPOCH   = 95698
BSTAR          = .10314114E-3
MEAN_MOTION_DOT = .17E-5
MEAN_MOTION_DDOT = 0

CCSDS_OMM_VERS = 2.0
CREATION_DATE  = 
ORIGINATOR     = 

OBJECT_NAME    = COSMOS 1953
OBJECT_ID      = 1988-050A
CENTER_NAME    = EARTH
REF_FRAME      = TEME
TIME_SYSTEM    = UTC
MEAN_ELEMENT_THEORY = SGP/SGP4

EPOCH          = 2026-02-27T19:19:33.034080
MEAN_MOTION    = 15.28310826
ECCENTRICITY   = .0012053
INCLINATION    = 82.5107
RA_OF_ASC_NODE = 168.1836
ARG_OF_PERICENTER = 154.6978
MEAN_ANOMALY   = 205.4854

EPHEMERIS_TYPE = 0
CLASSIFICATION_TYPE = U
NORAD_CAT_ID   = 19210
ELEMENT_SET_NO = 999
REV_AT_EPOCH   = 3627
BSTAR          = .30209582E-3
MEAN_MOTION_DOT = .8379E-4
MEAN_MOTION_DDOT = 0

CCSDS_OMM_VERS = 2.0
CREATION_DATE  = 
ORIGINATOR     = 

OBJECT_NAME    = SL-8 R/B
OBJECT_ID      = 1988-053B
CENTER_NAME    = EARTH
REF_FRAME      = TEME
TIME_SYSTEM    = UTC
MEAN_ELEMENT_THEORY = SGP/SGP4

EPOCH          = 2026-02-27T22:40:11.089056
MEAN_MOTION    = 14.38908950
ECCENTRICITY   = .00211521
INCLINATION    = 74.0474
RA_OF_ASC_NODE = 130.4291
ARG_OF_PERICENTER = 311.2077
MEAN_ANOMALY   = 221.6131

EPHEMERIS_TYPE = 0
CLASSIFICATION_TYPE = U
NORAD_CAT_ID   = 19257
ELEMENT_SET_NO = 999
REV_AT_EPOCH   = 97519
BSTAR          = .84403529E-4
MEAN_MOTION_DOT = .234E-5
MEAN_MOTION_DDOT = 0

CCSDS_OMM_VERS = 2.0
CREATION_DATE  = 
ORIGINATOR     = 

OBJECT_NAME    = COSMOS 1975
OBJECT_ID      = 1988-093A
CENTER_NAME    = EARTH
REF_FRAME      = TEME
TIME_SYSTEM    = UTC
MEAN_ELEMENT_THEORY = SGP/SGP4

EPOCH          = 2026-02-27T21:38:20.333472
MEAN_MOTION    = 15.27892574
ECCENTRICITY   = .00112338
INCLINATION    = 82.5206
RA_OF_ASC_NODE = 127.5089
ARG_OF_PERICENTER = 197.7840
MEAN_ANOMALY   = 162.3008

EPHEMERIS_TYPE = 0
CLASSIFICATION_TYPE = U
NORAD_CAT_ID   = 19573
ELEMENT_SET_NO = 999
REV_AT_EPOCH   = 1791
BSTAR          = .30090514E-3
MEAN_MOTION_DOT = .8238E-4
MEAN_MOTION_DDOT = 0

CCSDS_OMM_VERS = 2.0
CREATION_DATE  = 
ORIGINATOR     = 

OBJECT_NAME    = SL-14 R/B
OBJECT_ID      = 1988-093B
CENTER_NAME    = EARTH
REF_FRAME      = TEME
TIME_SYSTEM    = UTC
MEAN_ELEMENT_THEORY = SGP/SGP4

EPOCH          = 2026-02-27T23:06:38.562048
MEAN_MOTION    = 14.85642356
ECCENTRICITY   = .00222805
INCLINATION    = 82.5286
RA_OF_ASC_NODE = 51.1759
ARG_OF_PERICENTER = 71.7604
MEAN_ANOMALY   = 346.3071

EPHEMERIS_TYPE = 0
CLASSIFICATION_TYPE = U
NORAD_CAT_ID   = 19574
ELEMENT_SET_NO = 999
REV_AT_EPOCH   = 99959
BSTAR          = .6422248E-4
MEAN_MOTION_DOT = .583E-5
MEAN_MOTION_DDOT = 0

CCSDS_OMM_VERS = 2.0
CREATION_DATE  = 
ORIGINATOR     = 

OBJECT_NAME    = SL-16 R/B
OBJECT_ID      = 1988-102B
CENTER_NAME    = EARTH
REF_FRAME      = TEME
TIME_SYSTEM    = UTC
MEAN_ELEMENT_THEORY = SGP/SGP4

EPOCH          = 2026-02-27T17:36:12.951072
MEAN_MOTION    = 14.16149961
ECCENTRICITY   = .00133729
INCLINATION    = 71.0001
RA_OF_ASC_NODE = 172.4437
ARG_OF_PERICENTER = 16.7690
MEAN_ANOMALY   = 343.3873

EPHEMERIS_TYPE = 0
CLASSIFICATION_TYPE = U
NORAD_CAT_ID   = 19650
ELEMENT_SET_NO = 999
REV_AT_EPOCH   = 92548
BSTAR          = -.93763221E-4
MEAN_MOTION_DOT = -.233E-5
MEAN_MOTION_DDOT = 0

CCSDS_OMM_VERS = 2.0
CREATION_DATE  = 
ORIGINATOR     = 

OBJECT_NAME    = INTERCOSMOS 24
OBJECT_ID      = 1989-080A
CENTER_NAME    = EARTH
REF_FRAME      = TEME
TIME_SYSTEM    = UTC
MEAN_ELEMENT_THEORY = SGP/SGP4

EPOCH          = 2026-02-27T20:58:31.586880
MEAN_MOTION    = 12.59540378
ECCENTRICITY   = .11869554
INCLINATION    = 82.6038
RA_OF_ASC_NODE = 110.7959
ARG_OF_PERICENTER = 315.6256
MEAN_ANOMALY   = 35.5416

EPHEMERIS_TYPE = 0
CLASSIFICATION_TYPE = U
NORAD_CAT_ID   = 20261
ELEMENT_SET_NO = 999
REV_AT_EPOCH   = 66556
BSTAR          = .18873821E-3
MEAN_MOTION_DOT = .638E-5
MEAN_MOTION_DDOT = 0

CCSDS_OMM_VERS = 2.0
CREATION_DATE  = 
ORIGINATOR     = 

OBJECT_NAME    = SL-14 R/B
OBJECT_ID      = 1989-080C
CENTER_NAME    = EARTH
REF_FRAME      = TEME
TIME_SYSTEM    = UTC
MEAN_ELEMENT_THEORY = SGP/SGP4

EPOCH          = 2026-02-27T15:12:02.631456
MEAN_MOTION    = 12.50478257
ECCENTRICITY   = .1230173
INCLINATION    = 82.5970
RA_OF_ASC_NODE = 179.6402
ARG_OF_PERICENTER = 207.7322
MEAN_ANOMALY   = 145.2627

EPHEMERIS_TYPE = 0
CLASSIFICATION_TYPE = U
NORAD_CAT_ID   = 20262
ELEMENT_SET_NO = 999
REV_AT_EPOCH   = 65889
BSTAR          = .18846861E-3
MEAN_MOTION_DOT = .633E-5
MEAN_MOTION_DDOT = 0

CCSDS_OMM_VERS = 2.0
CREATION_DATE  = 
ORIGINATOR     = 

OBJECT_NAME    = DELTA 1 R/B
OBJECT_ID      = 1989-089B
CENTER_NAME    = EARTH
REF_FRAME      = TEME
TIME_SYSTEM    = UTC
MEAN_ELEMENT_THEORY = SGP/SGP4

EPOCH          = 2026-02-27T19:49:42.734784
MEAN_MOTION    = 14.50653534
ECCENTRICITY   = .0069817
INCLINATION    = 97.0712
RA_OF_ASC_NODE = 267.8334
ARG_OF_PERICENTER = 152.7172
MEAN_ANOMALY   = 207.7721

EPHEMERIS_TYPE = 0
CLASSIFICATION_TYPE = U
NORAD_CAT_ID   = 20323
ELEMENT_SET_NO = 999
REV_AT_EPOCH   = 89430
BSTAR          = .993664E-4
MEAN_MOTION_DOT = .367E-5
MEAN_MOTION_DDOT = 0

CCSDS_OMM_VERS = 2.0
CREATION_DATE  = 
ORIGINATOR     = 

OBJECT_NAME    = ARIANE 40 R/B
OBJECT_ID      = 1990-005H
CENTER_NAME    = EARTH
REF_FRAME      = TEME
TIME_SYSTEM    = UTC
MEAN_ELEMENT_THEORY = SGP/SGP4

EPOCH          = 2026-02-27T21:01:50.372544
MEAN_MOTION    = 14.39862914
ECCENTRICITY   = .00092461
INCLINATION    = 98.3105
RA_OF_ASC_NODE = 119.8292
ARG_OF_PERICENTER = 229.2920
MEAN_ANOMALY   = 130.7466

EPHEMERIS_TYPE = 0
CLASSIFICATION_TYPE = U
NORAD_CAT_ID   = 20443
ELEMENT_SET_NO = 999
REV_AT_EPOCH   = 89139
BSTAR          = .10236611E-3
MEAN_MOTION_DOT = .279E-5
MEAN_MOTION_DDOT = 0

