COSMOS 1933             
1 18958U 88020A   26058.50640625  .00004710  00000+0  23109-3 0  9997
2 18958  82.5099 260.9893 0002977 220.4705 139.6308 15.17875623 48689
SL-3 R/B                
1 19046U 88032B   26058.92263063  .00005731  00000+0  26913-3 0  9992
2 19046  97.5171  42.2102 0024058 268.3141  91.5338 15.19769559 50626
SL-16 R/B               
1 19120U 88039B   26058.83368290  .00000170  00000+0  10314-3 0  9990
2 19120  71.0129  89.3903 0022178 348.9895  11.0741 14.19614408956982
COSMOS 1953             
1 19210U 88050A   26058.80524345  .00008379  00000+0  30210-3 0  9991
2 19210  82.5107 168.1836 0012053 154.6978 205.4854 15.28310826 36274
SL-8 R/B                
1 19257U 88053B   26058.94457279  .00000234  00000+0  84404-4 0  9998
2 19257  74.0474 130.4291 0021152 311.2077 221.6131 14.38908950975198
COSMOS 1975             
1 19573U 88093A   26058.90162423  .00008238  00000+0  30091-3 0  9997
2 19573  82.5206 127.5089 0011233 197.7840 162.3008 15.27892574 17916
SL-14 R/B               
1 19574U 88093B   26058.96294632  .00000583  00000+0  64222-4 0  9991
2 19574  82.5286  51.1759 0022280  71.7604 346.3071 14.85642356999595
SL-16 R/B               
1 19650U 88102B   26058.73348323 -.00000233  00000+0 -93763-4 0  9995
2 19650  71.0001 172.4437 0013372  16.7690 343.3873 14.16149961925486
INTERCOSMOS 24          
1 20261U 89080A   26058.87397670  .00000638  00000+0  18874-3 0  9991
2 20261  82.6038 110.7959 1186955 315.6256  35.5416 12.59540378665561
SL-14 R/B               
1 20262U 89080C   26058.63336379  .00000633  00000+0  18847-3 0  9990
2 20262  82.5970 179.6402 1230173 207.7322 145.2627 12.50478257658898
DELTA 1 R/B             
1 20323U 89089B   26058.82618906  .00000367  00000+0  99366-4 0  9997
2 20323  97.0712 267.8334 0069817 152.7172 207.7721 14.50653534894303
ARIANE 40 R/B           
1 20443U 90005H   26058.87627746  .00000279  00000+0  10237-3 0  9998
2 20443  98.3105 119.8292 0009246 229.2920 130.7466 14.39862914891394
